ONEWEB-0228             
1 48780U 21045P   24058.56726843  .00000062  00000+0  13062-3 0  9991
2 48780  87.8944  66.4856 0001974  86.1975 273.9381 13.15549256133800
